start=new Date('2023-04-18T00:00:00.000Z').valueOf();
sats=[{"DECAY_DATE":null,"RA_OF_ASC_NODE":"36.3342","REF_FRAME":"TEME","NORAD_CAT_ID":"48022","SITE":"AFETR","OBJECT_TYPE":"PAYLOAD","FILE":"3889391","GP_ID":"230263486","OBJECT_NAME":"STARLINK-2298","PERIAPSIS":"546.258","ECCENTRICITY":"0.00012850","MEAN_ANOMALY":"275.5976","OBJECT_ID":"2021-024AX","BSTAR":"0.00286520000000","TIME_SYSTEM":"UTC","COUNTRY_CODE":"US","MEAN_ELEMENT_THEORY":"SGP4","ARG_OF_PERICENTER":"84.5160","REV_AT_EPOCH":"11533","INCLINATION":"53.0553","LAUNCH_DATE":"2021-03-24","MEAN_MOTION_DDOT":"0.0000000000000","EPOCH":"2023-04-17T19:52:00.345792","PERIOD":"95.591","RCS_SIZE":"LARGE","ELEMENT_SET_NO":"999","CLASSIFICATION_TYPE":"U","EPHEMERIS_TYPE":"0","SEMIMAJOR_AXIS":"6925.283","MEAN_MOTION":"15.06421278","APOAPSIS":"548.038","TLE_LINE2":"2 48022  53.0553  36.3342 0001285  84.5160 275.5976 15.06421278115330","CENTER_NAME":"EARTH","TLE_LINE1":"1 48022U 21024AX  23107.82778178  .00042679  00000-0  28652-2 0  9999","MEAN_MOTION_DOT":"0.00042679"},{"ELEMENT_SET_NO":"999","CLASSIFICATION_TYPE":"U","EPHEMERIS_TYPE":"0","SEMIMAJOR_AXIS":"6925.472","REV_AT_EPOCH":"11471","ARG_OF_PERICENTER":"57.7793","LAUNCH_DATE":"2021-03-24","INCLINATION":"53.0551","MEAN_MOTION_DDOT":"0.0000000000000","EPOCH":"2023-04-17T05:16:11.111520","RCS_SIZE":"LARGE","PERIOD":"95.595","TLE_LINE1":"1 48023U 21024AY  23107.21957305  .00041085  00000-0  27641-2 0  9991","MEAN_MOTION_DOT":"0.00041085","MEAN_MOTION":"15.06359636","TLE_LINE2":"2 48023  53.0551  38.7822 0001335  57.7793 302.3325 15.06359636114714","APOAPSIS":"548.262","CENTER_NAME":"EARTH","REF_FRAME":"TEME","NORAD_CAT_ID":"48023","OBJECT_TYPE":"PAYLOAD","SITE":"AFETR","GP_ID":"230204722","FILE":"3888910","OBJECT_NAME":"STARLINK-2292","RA_OF_ASC_NODE":"38.7822","DECAY_DATE":null,"OBJECT_ID":"2021-024AY","BSTAR":"0.00276410000000","COUNTRY_CODE":"US","TIME_SYSTEM":"UTC","MEAN_ELEMENT_THEORY":"SGP4","PERIAPSIS":"546.413","ECCENTRICITY":"0.00013350","MEAN_ANOMALY":"302.3325"},{"GP_ID":"230262485","FILE":"3889391","OBJECT_NAME":"STARLINK-2278","NORAD_CAT_ID":"48026","REF_FRAME":"TEME","OBJECT_TYPE":"PAYLOAD","SITE":"AFETR","DECAY_DATE":null,"RA_OF_ASC_NODE":"40.9001","MEAN_ELEMENT_THEORY":"SGP4","COUNTRY_CODE":"US","TIME_SYSTEM":"UTC","BSTAR":"0.00145290000000","OBJECT_ID":"2021-024BB","MEAN_ANOMALY":"297.8317","PERIAPSIS":"546.606","ECCENTRICITY":"0.00008830","SEMIMAJOR_AXIS":"6925.353","EPHEMERIS_TYPE":"0","ELEMENT_SET_NO":"999","CLASSIFICATION_TYPE":"U","RCS_SIZE":"LARGE","PERIOD":"95.592","REV_AT_EPOCH":"11521","ARG_OF_PERICENTER":"62.2761","EPOCH":"2023-04-17T20:41:43.770624","MEAN_MOTION_DDOT":"0.0000000000000","INCLINATION":"53.0549","LAUNCH_DATE":"2021-03-24","MEAN_MOTION_DOT":"0.00021425","TLE_LINE1":"1 48026U 21024BB  23107.86231216  .00021425  00000-0  14529-2 0  9998","CENTER_NAME":"EARTH","MEAN_MOTION":"15.06398603","TLE_LINE2":"2 48026  53.0549  40.9001 0000883  62.2761 297.8317 15.06398603115213","APOAPSIS":"547.829"},{"COUNTRY_CODE":"US","TIME_SYSTEM":"UTC","MEAN_ELEMENT_THEORY":"SGP4","OBJECT_ID":"2021-024BC","BSTAR":"0.00298870000000","MEAN_ANOMALY":"218.0759","PERIAPSIS":"541.678","ECCENTRICITY":"0.00015790","OBJECT_NAME":"STARLINK-2300","FILE":"3889215","GP_ID":"230233579","SITE":"AFETR","OBJECT_TYPE":"PAYLOAD","REF_FRAME":"TEME","NORAD_CAT_ID":"48027","RA_OF_ASC_NODE":"19.5892","DECAY_DATE":null,"MEAN_MOTION_DOT":"0.00046322","TLE_LINE1":"1 48027U 21024BC  23107.01482250  .00046322  00000-0  29887-2 0  9998","CENTER_NAME":"EARTH","APOAPSIS":"543.864","TLE_LINE2":"2 48027  53.0556  19.5892 0001579 142.0342 218.0759 15.07850622115431","MEAN_MOTION":"15.07850622","EPHEMERIS_TYPE":"0","SEMIMAJOR_AXIS":"6920.906","CLASSIFICATION_TYPE":"U","ELEMENT_SET_NO":"999","RCS_SIZE":"LARGE","PERIOD":"95.500","INCLINATION":"53.0556","LAUNCH_DATE":"2021-03-24","EPOCH":"2023-04-17T00:21:20.664000","MEAN_MOTION_DDOT":"0.0000000000000","ARG_OF_PERICENTER":"142.0342","REV_AT_EPOCH":"11543"},{"MEAN_MOTION_DOT":"0.00033312","TLE_LINE1":"1 48028U 21024BD  23107.87249153  .00033312  00000-0  22424-2 0  9991","CENTER_NAME":"EARTH","TLE_LINE2":"2 48028  53.0537 331.2498 0000572  51.0593 309.0447 15.06438763116248","APOAPSIS":"547.491","MEAN_MOTION":"15.06438763","SEMIMAJOR_AXIS":"6925.230","EPHEMERIS_TYPE":"0","CLASSIFICATION_TYPE":"U","ELEMENT_SET_NO":"999","PERIOD":"95.590","RCS_SIZE":"LARGE","EPOCH":"2023-04-17T20:56:23.268192","MEAN_MOTION_DDOT":"0.0000000000000","LAUNCH_DATE":"2021-03-24","INCLINATION":"53.0537","ARG_OF_PERICENTER":"51.0593","REV_AT_EPOCH":"11624","MEAN_ELEMENT_THEORY":"SGP4","COUNTRY_CODE":"US","TIME_SYSTEM":"UTC","BSTAR":"0.00224240000000","OBJECT_ID":"2021-024BD","MEAN_ANOMALY":"309.0447","ECCENTRICITY":"0.00005720","PERIAPSIS":"546.699","OBJECT_NAME":"STARLINK-2264","GP_ID":"230263987","FILE":"3889391","OBJECT_TYPE":"PAYLOAD","SITE":"AFETR","NORAD_CAT_ID":"48028","REF_FRAME":"TEME","DECAY_DATE":null,"RA_OF_ASC_NODE":"331.2498"},{"PERIAPSIS":"546.397","ECCENTRICITY":"0.00011020","MEAN_ANOMALY":"292.3783","BSTAR":"0.00291710000000","OBJECT_ID":"2021-024BE","MEAN_ELEMENT_THEORY":"SGP4","TIME_SYSTEM":"UTC","COUNTRY_CODE":"US","RA_OF_ASC_NODE":"35.9068","DECAY_DATE":null,"NORAD_CAT_ID":"48029","REF_FRAME":"TEME","OBJECT_TYPE":"PAYLOAD","SITE":"AFETR","GP_ID":"230263736","FILE":"3889391","OBJECT_NAME":"STARLINK-2299","MEAN_MOTION":"15.06417422","TLE_LINE2":"2 48029  53.0552  35.9068 0001102  67.7323 292.3783 15.06417422115348","APOAPSIS":"547.923","CENTER_NAME":"EARTH","TLE_LINE1":"1 48029U 21024BE  23107.86093056  .00043458  00000-0  29171-2 0  9998","MEAN_MOTION_DOT":"0.00043458","ARG_OF_PERICENTER":"67.7323","REV_AT_EPOCH":"11534","MEAN_MOTION_DDOT":"0.0000000000000","EPOCH":"2023-04-17T20:39:44.400384","INCLINATION":"53.0552","LAUNCH_DATE":"2021-03-24","RCS_SIZE":"LARGE","PERIOD":"95.591","ELEMENT_SET_NO":"999","CLASSIFICATION_TYPE":"U","SEMIMAJOR_AXIS":"6925.295","EPHEMERIS_TYPE":"0"},{"RA_OF_ASC_NODE":"44.0567","DECAY_DATE":null,"REF_FRAME":"TEME","NORAD_CAT_ID":"48030","OBJECT_TYPE":"PAYLOAD","SITE":"AFETR","FILE":"3889215","GP_ID":"230233342","OBJECT_NAME":"STARLINK-2268","PERIAPSIS":"546.603","ECCENTRICITY":"0.00010640","MEAN_ANOMALY":"306.0065","OBJECT_ID":"2021-024BF","BSTAR":"0.00247560000000","TIME_SYSTEM":"UTC","COUNTRY_CODE":"US","MEAN_ELEMENT_THEORY":"SGP4","REV_AT_EPOCH":"11510","ARG_OF_PERICENTER":"54.1023","LAUNCH_DATE":"2021-03-24","INCLINATION":"53.0544","EPOCH":"2023-04-17T03:47:56.460768","MEAN_MOTION_DDOT":"0.0000000000000","PERIOD":"95.595","RCS_SIZE":"LARGE","ELEMENT_SET_NO":"999","CLASSIFICATION_TYPE":"U","EPHEMERIS_TYPE":"0","SEMIMAJOR_AXIS":"6925.475","MEAN_MOTION":"15.06358665","APOAPSIS":"548.077","TLE_LINE2":"2 48030  53.0544  44.0567 0001064  54.1023 306.0065 15.06358665115103","CENTER_NAME":"EARTH","TLE_LINE1":"1 48030U 21024BF  23107.15829237  .00036744  00000-0  24756-2 0  9994","MEAN_MOTION_DOT":"0.00036744"},{"MEAN_ANOMALY":"252.2906","ECCENTRICITY":"0.00012050","PERIAPSIS":"546.271","TIME_SYSTEM":"UTC","COUNTRY_CODE":"US","MEAN_ELEMENT_THEORY":"SGP4","OBJECT_ID":"2021-024BG","BSTAR":"0.00170200000000","RA_OF_ASC_NODE":"285.9090","DECAY_DATE":null,"OBJECT_NAME":"STARLINK-2267","GP_ID":"230263236","FILE":"3889391","SITE":"AFETR","OBJECT_TYPE":"PAYLOAD","REF_FRAME":"TEME","NORAD_CAT_ID":"48031","CENTER_NAME":"EARTH","TLE_LINE2":"2 48031  53.0533 285.9090 0001205 107.8215 252.2906 15.06435132116826","APOAPSIS":"547.940","MEAN_MOTION":"15.06435132","MEAN_MOTION_DOT":"0.00025185","TLE_LINE1":"1 48031U 21024BG  23107.85999685  .00025185  00000-0  17020-2 0  9990","RCS_SIZE":"LARGE","PERIOD":"95.590","LAUNCH_DATE":"2021-03-24","INCLINATION":"53.0533","MEAN_MOTION_DDOT":"0.0000000000000","EPOCH":"2023-04-17T20:38:23.727840","ARG_OF_PERICENTER":"107.8215","REV_AT_EPOCH":"11682","EPHEMERIS_TYPE":"0","SEMIMAJOR_AXIS":"6925.241","CLASSIFICATION_TYPE":"U","ELEMENT_SET_NO":"999"},{"CENTER_NAME":"EARTH","TLE_LINE2":"2 48033  53.0537  35.9527 0001289 100.8810 259.2324 15.06345345115349","APOAPSIS":"548.274","MEAN_MOTION":"15.06345345","MEAN_MOTION_DOT":"0.00028929","TLE_LINE1":"1 48033U 21024BJ  23107.84986680  .00028929  00000-0  19559-2 0  9990","PERIOD":"95.596","RCS_SIZE":"LARGE","EPOCH":"2023-04-17T20:23:48.491520","MEAN_MOTION_DDOT":"0.0000000000000","INCLINATION":"53.0537","LAUNCH_DATE":"2021-03-24","REV_AT_EPOCH":"11534","ARG_OF_PERICENTER":"100.8810","SEMIMAJOR_AXIS":"6925.516","EPHEMERIS_TYPE":"0","CLASSIFICATION_TYPE":"U","ELEMENT_SET_NO":"999","MEAN_ANOMALY":"259.2324","ECCENTRICITY":"0.00012890","PERIAPSIS":"546.488","MEAN_ELEMENT_THEORY":"SGP4","COUNTRY_CODE":"US","TIME_SYSTEM":"UTC","BSTAR":"0.00195590000000","OBJECT_ID":"2021-024BJ","DECAY_DATE":null,"RA_OF_ASC_NODE":"35.9527","OBJECT_NAME":"STARLINK-2286","FILE":"3889391","GP_ID":"230263487","OBJECT_TYPE":"PAYLOAD","SITE":"AFETR","NORAD_CAT_ID":"48033","REF_FRAME":"TEME"},{"OBJECT_ID":"2021-024BK","BSTAR":"0.00282360000000","TIME_SYSTEM":"UTC","COUNTRY_CODE":"US","MEAN_ELEMENT_THEORY":"SGP4","ECCENTRICITY":"0.00010340","PERIAPSIS":"546.447","MEAN_ANOMALY":"279.6690","SITE":"AFETR","OBJECT_TYPE":"PAYLOAD","REF_FRAME":"TEME","NORAD_CAT_ID":"48034","OBJECT_NAME":"STARLINK-2288","GP_ID":"230264237","FILE":"3889391","DECAY_DATE":null,"RA_OF_ASC_NODE":"36.1677","TLE_LINE1":"1 48034U 21024BK  23107.80195697  .00042046  00000-0  28236-2 0  9995","MEAN_MOTION_DOT":"0.00042046","TLE_LINE2":"2 48034  53.0547  36.1677 0001034  80.4416 279.6690 15.06416571115334","APOAPSIS":"547.879","MEAN_MOTION":"15.06416571","CENTER_NAME":"EARTH","CLASSIFICATION_TYPE":"U","ELEMENT_SET_NO":"999","EPHEMERIS_TYPE":"0","SEMIMAJOR_AXIS":"6925.298","LAUNCH_DATE":"2021-03-24","INCLINATION":"53.0547","EPOCH":"2023-04-17T19:14:49.082208","MEAN_MOTION_DDOT":"0.0000000000000","REV_AT_EPOCH":"11533","ARG_OF_PERICENTER":"80.4416","PERIOD":"95.591","RCS_SIZE":"LARGE"}];
